NORAD_CAT_ID,OBJECT_NAME,OBJECT_TYPE,EPOCH,MEAN_MOTION,ECCENTRICITY,INCLINATION,RA_OF_ASC_NODE,ARG_OF_PERICENTER,MEAN_ANOMALY,BSTAR,MEAN_MOTION_DOT,MEAN_MOTION_DDOT,TLE_LINE0,TLE_LINE1,TLE_LINE2,SEMIMAJOR_AXIS,PERIOD,APOGEE,PERIGEE,DECAYED
52695.0,STARLINK-4041,PAYLOAD,2023-02-22 09:35:18,15.08844675,0.000154,53.213,97.9007,101.3914,258.7251,0.00029872,4.47e-05,0.0,0 STARLINK-4041,1 52695U 22053AR  23053.39951824  .00004470  00000-0  29872-3 0  9999,2 52695  53.2130  97.9007 0001540 101.3914 258.7251 15.08844675 42918,6917.866,95.437,540.796,538.666,0.0
52695.0,STARLINK-4041,PAYLOAD,2023-02-23 03:04:33,15.0883298,0.0001653,53.2146,94.6323,95.9873,264.1307,-1.0684e-05,-4.58e-06,0.0,0 STARLINK-4041,1 52695U 22053AR  23054.12816462 -.00000458  00000-0 -10684-4 0  9995,2 52695  53.2146  94.6323 0001653  95.9873 264.1307 15.08832980 43029,6917.902,95.438,540.91,538.623,0.0
52695.0,STARLINK-4041,PAYLOAD,2023-02-23 09:26:06,15.08834378,0.0001605,53.2148,93.4421,99.8316,260.2858,-5.4687e-06,-3.75e-06,0.0,0 STARLINK-4041,1 52695U 22053AR  23054.39312552 -.00000375  00000-0 -54687-5 0  9995,2 52695  53.2148  93.4421 0001605  99.8316 260.2858 15.08834378 43479,6917.898,95.438,540.873,538.652,0.0
52695.0,STARLINK-4041,PAYLOAD,2023-02-23 18:58:25,15.0883122,0.0001612,53.215,91.6585,100.0215,260.0959,0.00014548,2.028e-05,0.0,0 STARLINK-4041,1 52695U 22053AR  23054.79056881  .00002028  00000-0  14548-3 0  9994,2 52695  53.2150  91.6585 0001612 100.0215 260.0959 15.08831220 43534,6917.907,95.438,540.887,538.657,0.0
52695.0,STARLINK-4041,PAYLOAD,2023-02-24 12:27:38,15.08851077,0.0001466,53.2144,88.3851,98.5841,261.5317,0.00024607,3.632e-05,0.0,0 STARLINK-4041,1 52695U 22053AR  23055.51919826  .00003632  00000-0  24607-3 0  9991,2 52695  53.2144  88.3851 0001466  98.5841 261.5317 15.08851077 43232,6917.847,95.437,540.726,538.697,0.0
52695.0,STARLINK-4041,PAYLOAD,2023-02-24 18:49:11,15.08842283,0.0001534,53.2142,87.1935,80.2248,279.8917,0.00014485,2.018e-05,0.0,0 STARLINK-4041,1 52695U 22053AR  23055.78416230  .00002018  00000-0  14485-3 0  9991,2 52695  53.2142  87.1935 0001534  80.2248 279.8917 15.08842283 43276,6917.873,95.437,540.8,538.677,0.0
52695.0,STARLINK-4041,PAYLOAD,2023-02-25 04:21:31,15.08827527,0.0001448,53.2157,85.4139,94.7962,265.3195,-2.856e-05,-7.42e-06,0.0,0 STARLINK-4041,1 52695U 22053AR  23056.18161330 -.00000742  00000-0 -28560-4 0  9998,2 52695  53.2157  85.4139 0001448  94.7962 265.3195 15.08827527 43335,6917.919,95.438,540.785,538.782,0.0
52695.0,STARLINK-4041,PAYLOAD,2023-02-25 07:32:17,15.08829,0.0001506,53.2154,84.8188,96.6577,263.4586,-8.8052e-05,-1.689e-05,0.0,0 STARLINK-4041,1 52695U 22053AR  23056.31409143 -.00001689  00000-0 -88052-4 0  9993,2 52695  53.2154  84.8188 0001506  96.6577 263.4586 15.08829000 43765,6917.914,95.438,540.821,538.737,0.0
52695.0,STARLINK-4041,PAYLOAD,2023-02-25 18:39:59,15.08838434,0.0001376,53.2148,82.7362,89.8546,270.2603,0.00012123,1.642e-05,0.0,0 STARLINK-4041,1 52695U 22053AR  23056.77777013  .00001642  00000-0  12123-3 0  9999,2 52695  53.2148  82.7362 0001376  89.8546 270.2603 15.08838434 43424,6917.885,95.438,540.702,538.798,0.0
52695.0,STARLINK-4041,PAYLOAD,2023-02-26 10:33:50,15.08868138,0.0001323,53.214,79.7617,85.5365,274.5778,0.0013384,0.00021093,0.0,0 STARLINK-4041,1 52695U 22053AR  23057.44016516  .00021093  00000-0  13384-2 0  9999,2 52695  53.2140  79.7617 0001323  85.5365 274.5778 15.08868138 43524,6917.794,95.436,540.575,538.744,0.0
52695.0,STARLINK-4041,PAYLOAD,2023-02-26 18:30:46,15.08850581,0.0001671,53.2155,78.2723,79.3807,280.7373,0.00051047,7.848e-05,0.0,0 STARLINK-4041,1 52695U 22053AR  23057.77136825  .00007848  00000-0  51047-3 0  9992,2 52695  53.2155  78.2723 0001671  79.3807 280.7373 15.08850581 43578,6917.848,95.437,540.869,538.557,0.0
52695.0,STARLINK-4041,PAYLOAD,2023-02-27 08:49:14,15.08849421,0.0001783,53.2141,75.5985,74.2047,285.9142,0.00041319,6.296e-05,0.0,0 STARLINK-4041,1 52695U 22053AR  23058.36752952  .00006296  00000-0  41319-3 0  9990,2 52695  53.2141  75.5985 0001783  74.2047 285.9142 15.08849421 43669,6917.852,95.437,540.95,538.483,0.0
52695.0,STARLINK-4041,PAYLOAD,2023-02-27 18:21:33,15.08872021,0.0001843,53.2144,73.8147,72.9763,287.1431,0.0016404,0.00025939,0.0,0 STARLINK-4041,1 52695U 22053AR  23058.76496549  .00025939  00000-0  16404-2 0  9992,2 52695  53.2144  73.8147 0001843  72.9763 287.1431 15.08872021 43724,6917.783,95.436,540.922,538.373,0.0
52695.0,STARLINK-4041,PAYLOAD,2023-02-28 10:15:23,15.08877755,0.0001741,53.2147,70.8407,72.7329,287.3854,0.0010464,0.00016422,0.0,0 STARLINK-4041,1 52695U 22053AR  23059.42735471  .00016422  00000-0  10464-2 0  9993,2 52695  53.2147  70.8407 0001741  72.7329 287.3854 15.08877755 43827,6917.765,95.435,540.834,538.426,0.0
52695.0,STARLINK-4041,PAYLOAD,2023-02-28 18:12:19,15.08839008,0.0001439,53.2154,69.3527,90.0607,270.055,-0.00039247,-6.529e-05,0.0,0 STARLINK-4041,1 52695U 22053AR  23059.75855967 -.00006529  00000-0 -39247-3 0  9992,2 52695  53.2154  69.3527 0001439  90.0607 270.0550 15.08839008 44289,6917.883,95.438,540.744,538.753,0.0
52695.0,STARLINK-4041,PAYLOAD,2023-02-28 22:58:29,15.0879943,0.0001111,53.2161,68.4624,84.696,275.4158,-0.0020191,-0.00032242,0.0,0 STARLINK-4041,1 52695U 22053AR  23059.95728679 -.00032242  00000-0 -20191-2 0  9991,2 52695  53.2161  68.4624 0001111  84.6960 275.4158 15.08799430 43908,6918.004,95.44,540.638,539.101,0.0
52695.0,STARLINK-4041,PAYLOAD,2023-03-01 10:06:12,15.08803694,0.0001304,53.2145,66.3788,102.1842,257.9296,-0.00020732,-3.582e-05,0.0,0 STARLINK-4041,1 52695U 22053AR  23060.42097894 -.00003582  00000-0 -20732-3 0  9990,2 52695  53.2145  66.3788 0001304 102.1842 257.9296 15.08803694 43970,6917.991,95.44,540.758,538.954,0.0
52695.0,STARLINK-4041,PAYLOAD,2023-03-02 03:35:28,15.08835205,0.0001126,53.2148,63.109,105.7092,254.4024,0.0015034,0.00023716,0.0,0 STARLINK-4041,1 52695U 22053AR  23061.14963127  .00023716  00000-0  15034-2 0  9998,2 52695  53.2148  63.1090 0001126 105.7092 254.4024 15.08835205 44089,6917.895,95.438,540.539,538.981,0.0
52695.0,STARLINK-4041,PAYLOAD,2023-03-02 09:57:00,15.0884975,0.0001186,53.2152,61.9198,105.8426,254.2697,0.0014888,0.00023492,0.0,0 STARLINK-4041,1 52695U 22053AR  23061.41459000  .00023492  00000-0  14888-2 0  9995,2 52695  53.2152  61.9198 0001186 105.8426 254.2697 15.08849750 44531,6917.851,95.437,540.536,538.895,0.0
52695.0,STARLINK-4041,PAYLOAD,2023-03-03 06:37:00,15.08887929,0.0001161,53.2146,58.0531,108.5047,251.6071,0.0018855,0.00029887,0.0,0 STARLINK-4041,1 52695U 22053AR  23062.27569640  .00029887  00000-0  18855-2 0  9994,2 52695  53.2146  58.0531 0001161 108.5047 251.6071 15.08887929 44250,6917.734,95.435,540.402,538.796,0.0
52695.0,STARLINK-4041,PAYLOAD,2023-03-03 16:09:18,15.08880718,0.000129,53.2155,56.2684,89.9484,270.1656,0.00076601,0.00011938,0.0,0 STARLINK-4041,1 52695U 22053AR  23062.67312912  .00011938  00000-0  76601-3 0  9998,2 52695  53.2155  56.2684 0001290  89.9484 270.1656 15.08880718 44310,6917.756,95.435,540.513,538.729,0.0
52695.0,STARLINK-4041,PAYLOAD,2023-03-04 00:06:13,15.08860726,0.0001507,53.215,54.782,101.2378,258.8784,6.1334e-05,6.89e-06,0.0,0 STARLINK-4041,1 52695U 22053AR  23063.00432788  .00000689  00000-0  61334-4 0  9999,2 52695  53.2150  54.7820 0001507 101.2378 258.8784 15.08860726 44368,6917.817,95.436,540.725,538.64,0.0
52695.0,STARLINK-4041,PAYLOAD,2023-03-04 06:27:46,15.08864225,0.0001443,53.2154,53.593,98.1644,261.9512,0.0017027,0.00026932,0.0,0 STARLINK-4041,1 52695U 22053AR  23063.26928581  .00026932  00000-0  17027-2 0  9995,2 52695  53.2154  53.5930 0001443  98.1644 261.9512 15.08864225 44812,6917.806,95.436,540.67,538.673,0.0
52695.0,STARLINK-4041,PAYLOAD,2023-03-04 16:00:05,15.08851508,0.0001627,53.2159,51.8065,91.6693,268.4485,0.00095277,0.00014913,0.0,0 STARLINK-4041,1 52695U 22053AR  23063.66672741  .00014913  00000-0  95277-3 0  9993,2 52695  53.2159  51.8065 0001627  91.6693 268.4485 15.08851508 44465,6917.845,95.437,540.836,538.585,0.0
52695.0,STARLINK-4041,PAYLOAD,2023-03-04 22:21:37,15.08853442,0.00019,53.216,50.6222,103.1435,256.9769,0.00057488,8.876e-05,0.0,0 STARLINK-4041,1 52695U 22053AR  23063.93168672  .00008876  00000-0  57488-3 0  9999,2 52695  53.2160  50.6222 0001900 103.1435 256.9769 15.08853442 44912,6917.839,95.437,541.019,538.39,0.0
52695.0,STARLINK-4041,PAYLOAD,2023-03-05 09:29:19,15.08854205,0.0001517,53.2149,48.5375,108.0103,252.1054,0.0018678,0.00029575,0.0,0 STARLINK-4041,1 52695U 22053AR  23064.39536829  .00029575  00000-0  18678-2 0  9999,2 52695  53.2149  48.5375 0001517 108.0103 252.1054 15.08854205 44579,6917.837,95.437,540.751,538.653,0.0
52695.0,STARLINK-4041,PAYLOAD,2023-03-05 15:50:52,15.08846539,0.0002041,53.2157,47.3451,85.9218,274.2007,0.0014187,0.00022367,0.0,0 STARLINK-4041,1 52695U 22053AR  23064.66033332  .00022367  00000-0  14187-2 0  9993,2 52695  53.2157  47.3451 0002041  85.9218 274.2007 15.08846539 44612,6917.86,95.437,541.137,538.313,0.0
52695.0,STARLINK-4041,PAYLOAD,2023-03-06 02:58:34,15.08846375,0.0001528,53.2174,45.2687,96.3043,263.8123,0.0010874,0.00017063,0.0,0 STARLINK-4041,1 52695U 22053AR  23065.12401196  .00017063  00000-0  10874-2 0  9998,2 52695  53.2174  45.2687 0001528  96.3043 263.8123 15.08846375 44688,6917.861,95.437,540.783,538.669,0.0
52695.0,STARLINK-4041,PAYLOAD,2023-03-06 07:44:43,15.08869765,0.0001334,53.2155,44.374,98.0655,262.0488,0.0027069,0.00043091,0.0,0 STARLINK-4041,1 52695U 22053AR  23065.32272776  .00043091  00000-0  27069-2 0  9994,2 52695  53.2155  44.3740 0001334  98.0655 262.0488 15.08869765 44717,6917.789,95.436,540.577,538.732,0.0
52695.0,STARLINK-4041,PAYLOAD,2023-03-06 22:03:12,15.08850869,0.0001609,53.2151,41.6971,103.6114,256.5057,0.0017589,0.00027824,0.0,0 STARLINK-4041,1 52695U 22053AR  23065.91889521  .00027824  00000-0  17589-2 0  9993,2 52695  53.2151  41.6971 0001609 103.6114 256.5057 15.08850869 45218,6917.847,95.437,540.825,538.599,0.0
